*******************************************************************************
 Revised: Jun 17, 2016           Amalthea / (Jupiter)                       505

 SATELLITE PHYSICAL PROPERTIES:
  Radius (km)             = 131 x 73 x 67   Density (g cm^-3)   =              
  Mass (10^20 kg )        =                 Geometric Albedo    =  0.06 
                                            V(1,0)              = +7.4

 SATELLITE ORBITAL DATA:
  Semi-major axis, a (km) = 181.3 (10^3)    Orbital period      = 0.498179 d
  Eccentricity, e         = 0.003           Rotational period   = Synchronous
  Inclination, i  (deg)   = 0.40 
*******************************************************************************
 
 
*******************************************************************************
Ephemeris / WWW_USER Sat Aug  5 11:49:27 2017 Pasadena, USA      / Horizons    
*******************************************************************************
Target body name: Amalthea (505)                  {source: jup310}
Center body name: Solar System Barycenter (0)     {source: DE431mx}
Center-site name: BODY CENTER
*******************************************************************************
Start time      : A.D. 2017-Jul-10 00:00:00.0000 TDB
Stop  time      : A.D. 2020-Aug-13 00:00:00.0000 TDB
Step-size       : 1440 minutes
*******************************************************************************
Center geodetic : 0.00000000,0.00000000,0.0000000 {E-lon(deg),Lat(deg),Alt(km)}
Center cylindric: 0.00000000,0.00000000,0.0000000 {E-lon(deg),Dxy(km),Dz(km)}
Center radii    : (undefined)                                                  
Output units    : KM-S                                                         
Output type     : GEOMETRIC cartesian states
Output format   : 3 (position, velocity, LT, range, range-rate)
Reference frame : ICRF/J2000.0                                                 
Coordinate systm: Ecliptic and Mean Equinox of Reference Epoch                 
*******************************************************************************
            JDTDB,            Calendar Date (TDB),                      X,                      Y,                      Z,                     VX,                     VY,                     VZ,                     LT,                     RG,                     RR,
**************************************************************************************************************************************************************************************************************************************************************************
$$SOE
2458214.500000000, A.D. 2018-Apr-06 00:00:00.0000, -5.667520834637548E+08, -5.776006890691367E+08,  1.507375213838288E+07,  2.471538253888025E+01,  1.298644883199925E+01,  6.540701354550871E-01,  2.699722179298379E+03,  8.093563480489777E+08, -2.656261003223019E+01,
2458215.500000000, A.D. 2018-Apr-07 00:00:00.0000, -5.659546652681166E+08, -5.783304963906764E+08,  1.505928048024088E+07,  2.372373063903184E+01,  1.369041916056583E+01,  6.664526225955356E-01,  2.699598391697989E+03,  8.093192374599869E+08, -2.636055793216579E+01,
2458216.500000000, A.D. 2018-Apr-08 00:00:00.0000, -5.651564632540426E+08, -5.790590517830983E+08,  1.504478496039164E+07,  2.270081952743334E+01,  1.434603280167925E+01,  6.780303001102270E-01,  2.699474600164276E+03,  8.092821256918154E+08, -2.610525246675916E+01,
2458217.500000000, A.D. 2018-Apr-09 00:00:00.0000, -5.643574230724626E+08, -5.797862289563363E+08,  1.503027202352619E+07,  2.164815728611767E+01,  1.495627298302388E+01,  6.888882973457022E-01,  2.699350373317370E+03,  8.092448834200318E+08, -2.579983589836303E+01,
2458218.500000000, A.D. 2018-Apr-10 00:00:00.0000, -5.635577183970273E+08, -5.805121421681778E+08,  1.501573536245361E+07,  2.057008306018214E+01,  1.551553837217627E+01,  6.988455732671097E-01,  2.699226383461368E+03,  8.092077121963341E+08, -2.544327433297548E+01,
2458219.500000000, A.D. 2018-Apr-11 00:00:00.0000, -5.627573151847898E+08, -5.812367354084558E+08,  1.500117846011040E+07,  1.946653267717733E+01,  1.602378154984196E+01,  7.078501564984707E-01,  2.699102412896715E+03,  8.091705467560372E+08, -2.503542131752942E+01,
2458220.500000000, A.D. 2018-Apr-12 00:00:00.0000, -5.619562148381522E+08, -5.819601258342166E+08,  1.498659804693997E+07,  1.834294189404420E+01,  1.648247663063538E+01,  7.159741870761387E-01,  2.698978740836670E+03,  8.091334708051701E+08, -2.458104264634082E+01,
2458221.500000000, A.D. 2018-Apr-13 00:00:00.0000, -5.611545321835387E+08, -5.826822615826176E+08,  1.497199477243048E+07,  1.719829105850736E+01,  1.688438317771676E+01,  7.228667286024582E-01,  2.698855504572941E+03,  8.090965255027523E+08, -2.407414465131636E+01,
2458222.500000000, A.D. 2018-Apr-14 00:00:00.0000, -5.603521092997874E+08, -5.834033062775795E+08,  1.495736515748984E+07,  1.603923997082406E+01,  1.723599250702150E+01,  7.287679595713312E-01,  2.698732727247293E+03,  8.090597177865096E+08, -2.352392054368031E+01,
2458223.500000000, A.D. 2018-Apr-15 00:00:00.0000, -5.595489913776486E+08, -5.841231814073513E+08,  1.494271237519333E+07,  1.486541335450691E+01,  1.753079068391028E+01,  7.333750650732602E-01,  2.698610321910823E+03,  8.090230215898167E+08, -2.292531753508152E+01,
2458224.500000000, A.D. 2018-Apr-16 00:00:00.0000, -5.587450904329669E+08, -5.848417909849735E+08,  1.492804207794195E+07,  1.367895179005986E+01,  1.777480530451639E+01,  7.368181455446878E-01,  2.698487851288420E+03,  8.089863058208939E+08, -2.228405690142608E+01,
2458225.500000000, A.D. 2018-Apr-17 00:00:00.0000, -5.579406128659306E+08, -5.855592239823101E+08,  1.491334813201135E+07,  1.248325159004901E+01,  1.796011920130546E+01,  7.387574250911486E-01,  2.698366001206459E+03,  8.089497760853153E+08, -2.159665491563192E+01,
2458226.500000000, A.D. 2018-Apr-18 00:00:00.0000, -5.571354871912546E+08, -5.862754545934809E+08,  1.489863302335125E+07,  1.127979582567088E+01,  1.809139704076108E+01,  7.392734191912220E-01,  2.698244540583810E+03,  8.089133631067013E+08, -2.086737983762714E+01,
2458227.500000000, A.D. 2018-Apr-19 00:00:00.0000, -5.563297405584466E+08, -5.869906058760227E+08,  1.488389270178726E+07,  1.007340269574815E+01,  1.816717374482845E+01,  7.382841215032325E-01,  2.698123825192217E+03,  8.088771735427370E+08, -2.009836081657127E+01,
2458228.500000000, A.D. 2018-Apr-20 00:00:00.0000, -5.555234417710743E+08, -5.877046227192898E+08,  1.486912821970037E+07,  8.864049526112879E+00,  1.818435055975546E+01,  7.355297619755072E-01,  2.698003875897275E+03,  8.088412136487709E+08, -1.928719411956904E+01,
2458229.500000000, A.D. 2018-Apr-21 00:00:00.0000, -5.547164602699547E+08, -5.884176952162129E+08,  1.485433420205683E+07,  7.657743352371076E+00,  1.814809609548132E+01,  7.311751518045764E-01,  2.697884850581090E+03,  8.088055307566675E+08, -1.844160985042872E+01,
2458230.500000000, A.D. 2018-Apr-22 00:00:00.0000, -5.539088009776595E+08, -5.891297406833800E+08,  1.483951408653694E+07,  6.455464682497897E+00,  1.805344629209749E+01,  7.249475069232671E-01,  2.697766558410649E+03,  8.087700676561290E+08, -1.755851697993061E+01,
2458231.500000000, A.D. 2018-Apr-23 00:00:00.0000, -5.531003407703333E+08, -5.898406796288816E+08,  1.482467292965069E+07,  5.258183993299776E+00,  1.790749317489406E+01,  7.169718480749010E-01,  2.697648523253602E+03,  8.087346816062675E+08, -1.664358254474109E+01,
2458232.500000000, A.D. 2018-Apr-24 00:00:00.0000, -5.522912941207116E+08, -5.905505542753514E+08,  1.480980563527682E+07,  4.069908347510816E+00,  1.770185167360818E+01,  7.068755951642309E-01,  2.697531334538186E+03,  8.086995493132229E+08, -1.569327519268915E+01,
2458233.500000000, A.D. 2018-Apr-25 00:00:00.0000, -5.514815564218879E+08, -5.912593446495448E+08,  1.479491430310580E+07,  2.891711594663949E+00,  1.744421550201309E+01,  6.948389146405551E-01,  2.697414702358426E+03,  8.086645838653709E+08, -1.471376537540875E+01,
2458234.500000000, A.D. 2018-Apr-26 00:00:00.0000, -5.506711853568596E+08, -5.919671584051961E+08,  1.477999453839397E+07,  1.728562173975662E+00,  1.713078517334589E+01,  6.806775622999695E-01,  2.697299017846046E+03,  8.086299025210521E+08, -1.370549265667294E+01,
2458235.500000000, A.D. 2018-Apr-27 00:00:00.0000, -5.498602108685349E+08, -5.926739158578993E+08,  1.476504823554376E+07,  5.795798625389619E-01,  1.676353382951216E+01,  6.643014584952773E-01,  2.697184152138557E+03,  8.085954666482642E+08, -1.266911468496115E+01,
2458236.500000000, A.D. 2018-Apr-28 00:00:00.0000, -5.490485565746948E+08, -5.933798186471969E+08,  1.475006831694022E+07, -5.485752401098090E-01,  1.634424302260362E+01,  6.457805417414235E-01,  2.697070422322036E+03,  8.085613713070211E+08, -1.161028036083399E+01,
2458237.500000000, A.D. 2018-Apr-29 00:00:00.0000, -5.482361980977812E+08, -5.940847760236409E+08,  1.473505831616789E+07, -1.655172725495504E+00,  1.587189990093598E+01,  6.249784672626415E-01,  2.696957550564822E+03,  8.085275332054871E+08, -1.052854609364485E+01,
2458238.500000000, A.D. 2018-Apr-30 00:00:00.0000, -5.474230159022250E+08, -5.947887313867342E+08,  1.472002193073624E+07, -2.739933462134058E+00,  1.535296271771850E+01,  6.020158940638494E-01,  2.696845127166853E+03,  8.084938295186733E+08, -9.428649438254531E+00,
2458239.500000000, A.D. 2018-May-01 00:00:00.0000, -5.466092284887618E+08, -5.954916887901074E+08,  1.470495495060721E+07, -3.798218121966780E+00,  1.478014752390622E+01,  5.765917666750919E-01,  2.696733654230273E+03,  8.084604107730154E+08, -8.308180693624003E+00,
2458240.500000000, A.D. 2018-May-02 00:00:00.0000, -5.457947245649992E+08, -5.961936541604646E+08,  1.468985816973695E+07, -4.830047855600123E+00,  1.416148827259770E+01,  5.489201912039610E-01,  2.696622893288953E+03,  8.084272054781667E+08, -7.172830408920310E+00,
